OBJECT_NAME,OBJECT_ID,EPOCH,MEAN_MOTION,ECCENTRICITY,INCLINATION,RA_OF_ASC_NODE,ARG_OF_PERICENTER,MEAN_ANOMALY,EPHEMERIS_TYPE,CLASSIFICATION_TYPE,NORAD_CAT_ID,ELEMENT_SET_NO,REV_AT_EPOCH,BSTAR,MEAN_MOTION_DOT,MEAN_MOTION_DDOT
CUBEBUG-2 (LO-74),2013-066AA,2026-06-30T19:04:32.463552,14.93871723,.00569094,97.8910,130.8314,344.0423,15.9001,0,U,39440,999,67902,.43003152E-3,.4655E-4,0
FUNCUBE-1 (AO-73),2013-066AE,2026-07-01T04:12:41.370912,15.09659489,.00371678,97.8284,153.9150,153.3577,206.9572,0,U,39444,999,68177,.51100856E-3,.8294E-4,0
UWE-3,2013-066AG,2026-07-01T02:49:51.629952,14.97129431,.00470613,97.8711,138.2876,273.5839,86.0001,0,U,39446,999,67966,.31423206E-3,.3646E-4,0
UNISAT-6,2014-033C,2026-07-01T04:26:21.279264,14.88314396,.00453573,97.7893,334.6515,24.1064,336.2262,0,U,40012,999,64824,.32733559E-3,.3029E-4,0
DUCHIFAT-1,2014-033M,2026-07-01T14:10:00.261984,15.67738126,.00000971,98.0446,243.8075,87.5908,272.5362,0,U,40021,999,65800,.12770693E-2,.141762E-2,0
QB50P1,2014-033R,2026-06-30T23:44:53.517984,15.18468022,.00092669,98.0957,194.1047,167.8824,192.2633,0,U,40025,999,65512,.48958673E-3,.10029E-3,0
LILACSAT-2,2015-049K,2026-07-01T14:07:54.575904,15.51923214,.00070369,97.4623,219.9806,184.4926,175.6264,0,U,40908,999,59798,.3596872E-3,.21528E-3,0
FOX-1A (AO-85),2015-058D,2026-07-01T13:43:50.695392,14.91028580,.01313639,64.7738,234.2784,51.0040,310.2684,0,U,40967,999,11571,.20846425E-3,.2259E-4,0
CAS-2T & KS-1Q,2016-066G,2026-07-01T15:30:55.122048,14.44741123,.03428181,98.3818,258.2174,85.7593,278.2689,0,U,41847,999,50688,.23709323E-3,.1647E-4,0
RADFXSAT (FOX-1B),2017-073E,2026-07-01T15:03:14.762016,15.12909396,.01482279,97.4683,49.5473,278.8639,79.5834,0,U,43017,999,46757,.33155845E-3,.7579E-4,0
DIWATA-2B,2018-084H,2026-07-01T15:22:48.194976,15.00513795,.00131214,98.1199,19.4800,125.4129,234.8321,0,U,43678,999,41838,.16567281E-3,.2025E-4,0
ES'HAIL 2,2018-090A,2026-07-01T14:09:02.469888,1.00272677,.00022416,0.0181,24.6739,110.2992,22.7129,0,U,43700,999,2782,0,.155E-5,0
FOX-1CLIFF (AO-95),2018-099N,2026-07-01T15:02:30.261696,15.27015728,.00069323,97.4377,242.8216,298.6227,61.4315,0,U,43770,999,41542,.51478319E-3,.13594E-3,0
ITASAT,2018-099AE,2026-07-01T09:08:44.956896,15.19232257,.0010915,97.4018,233.6103,306.5380,53.4849,0,U,43786,999,41506,.38949762E-3,.8152E-4,0
JY1SAT (JO-97),2018-099AX,2026-07-01T02:55:20.699040,15.34098627,.00054955,97.4125,245.0076,204.3535,155.7449,0,U,43803,999,41576,.6987469E-3,.2303E-3,0
UWE-4,2018-111E,2026-07-01T01:28:37.633152,15.46980202,.00043375,97.5854,111.0998,264.5521,95.5233,0,U,43880,999,41292,.77186828E-3,.38998E-3,0
TIANYAN 01,2019-093C,2026-07-01T15:38:07.541088,14.86542691,.00146965,97.7535,254.5309,43.9963,316.2420,0,U,44881,999,35356,.88348732E-4,.73E-5,0
RS-44 & BREEZE-KM R/B,2019-096E,2026-07-01T11:14:54.573216,12.79748938,.0218549,82.5231,330.2141,110.9217,251.5427,0,U,44909,999,30417,-.51614706E-4,0,0
SALSAT,2020-068K,2026-07-01T11:15:52.774848,15.30000103,.00079905,97.8847,186.4054,246.9386,113.1011,0,U,46495,999,31754,.29884673E-3,.8603E-4,0
XW-3 (CAS-9),2021-131B,2026-07-01T13:30:56.990304,14.41370542,.00052616,98.4994,274.8751,64.0093,296.1638,0,U,50466,999,23718,.17862214E-3,.534E-5,0
GREENCUBE (IO-117),2022-080E,2026-06-30T17:23:31.202880,6.42583253,.00089588,70.1437,293.5372,286.6703,73.2973,0,U,53109,999,9293,0,-.3E-7,0
UMKA 1 (RS40S),2023-091G,2026-07-01T15:13:07.310496,15.20985530,.00140988,97.5042,241.2764,72.9869,287.2910,0,U,57172,999,16620,.33740835E-3,.7429E-4,0
CUBESX-HSE 3 (RS42S),2023-091N,2026-07-01T14:44:54.125376,15.31578087,.00111046,97.5086,248.3866,49.0176,311.2024,0,U,57178,999,16663,.52377907E-3,.15937E-3,0
MONITOR-3 (RS58S),2023-091Q,2026-07-01T14:32:09.088800,15.28131419,.00123459,97.5076,246.1593,55.4883,304.7520,0,U,57180,999,16649,.4633333E-3,.12667E-3,0
MONITOR-4 (RS57S),2023-091S,2026-07-01T15:35:07.838592,15.28218848,.00123587,97.5071,246.1754,55.7160,304.5248,0,U,57182,999,16650,.48297096E-3,.13244E-3,0
MONITOR-2 (RS39S),2023-091U,2026-07-01T14:35:10.464000,15.19044384,.00124988,97.5063,240.7979,67.3185,292.9369,0,U,57184,999,16614,.26479513E-3,.549E-4,0
SVYATOBOR 1 (RS60S),2023-091X,2026-07-01T14:37:46.783200,15.26859049,.00101131,97.5083,246.5078,50.3468,309.8661,0,U,57187,999,16651,.40223448E-3,.10559E-3,0
VIZARD-METEO (RS38S),2023-091Z,2026-07-01T14:35:15.990144,15.36484047,.00070142,97.5087,252.3856,31.3952,328.7709,0,U,57189,999,16690,.56812207E-3,.20186E-3,0
POLYTECH-UNIVERSE 3 (RS46S),2023-091AB,2026-07-01T15:11:33.458496,15.19253086,.00169549,97.5039,240.3272,81.2616,279.0538,0,U,57191,999,16614,.30471804E-3,.6378E-4,0
UTMN 2 (RS27S),2023-091AP,2026-07-01T14:58:57.355680,15.32403837,.00081913,97.5081,250.0478,38.8521,321.3308,0,U,57203,999,16675,.49486971E-3,.15433E-3,0
