CUBEBUG-2 (LO-74)
1 39440U 13066AA  26181.79482018  .00004655  00000-0  43003-3 0  9996
2 39440  97.8910 130.8314 0056909 344.0423  15.9001 14.93871723679020
FUNCUBE-1 (AO-73)
1 39444U 13066AE  26182.17547883  .00008294  00000-0  51101-3 0  9996
2 39444  97.8284 153.9150 0037168 153.3577 206.9572 15.09659489681770
UWE-3
1 39446U 13066AG  26182.11795868  .00003646  00000-0  31423-3 0  9991
2 39446  97.8711 138.2876 0047061 273.5839  86.0001 14.97129431679661
UNISAT-6
1 40012U 14033C   26182.18496851  .00003029  00000-0  32734-3 0  9995
2 40012  97.7893 334.6515 0045357  24.1064 336.2262 14.88314396648245
DUCHIFAT-1
1 40021U 14033M   26182.59028081  .00141762  00000-0  12771-2 0  9991
2 40021  98.0446 243.8075 0000097  87.5908 272.5362 15.67738126658004
LILACSAT-2
1 40908U 15049K   26182.58882611  .00021528  00000-0  35969-3 0  9991
2 40908  97.4623 219.9806 0007037 184.4926 175.6264 15.51923214597982
CAS-2T & KS-1Q
1 41847U 16066G   26182.64647132  .00001647  00000-0  23709-3 0  9997
2 41847  98.3818 258.2174 0342818  85.7593 278.2689 14.44741123506885
FOX-1B (AO-91)
1 43017U 17073E   26182.62725419  .00007579  00000-0  33156-3 0  9997
2 43017  97.4683  49.5473 0148228 278.8639  79.5834 15.12909396467574
FUNCUBE-3 (EO-79)/QB50P1
1 40025U 14033R   26181.98950831  .00010029  00000-0  48959-3 0  9993
2 40025  98.0957 194.1047 0009267 167.8824 192.2633 15.18468022655129
FOX-1A (AO-85)
1 40967U 15058D   26182.57211453  .00002259  00000-0  20846-3 0  9993
2 40967  64.7738 234.2784 0131364  51.0040 310.2684 14.91028580115718
DIWATA-2B (PO-101)
1 43678U 18084H   26182.64083559  .00002025  00000-0  16567-3 0  9995
2 43678  98.1199  19.4800 0013121 125.4129 234.8321 15.00513795418384
ESHAIL-2
1 43700U 18090A   26182.58961192  .00000155  00000-0  00000-0 0  9993
2 43700   0.0181  24.6739 0002242 110.2992  22.7129  1.00272677 27825
ITASAT-1
1 43786U 18099AE  26182.38107589  .00008152  00000-0  38950-3 0  9999
2 43786  97.4018 233.6103 0010915 306.5380  53.4849 15.19232257415064
FOX-1CLIFF (AO-95)
1 43770U 18099N   26182.62673914  .00013594  00000-0  51478-3 0  9995
2 43770  97.4377 242.8216 0006932 298.6227  61.4315 15.27015728415425
JY1SAT (JO-97)
1 43803U 18099AX  26182.12176735  .00023030  00000-0  69875-3 0  9992
2 43803  97.4125 245.0076 0005495 204.3535 155.7449 15.34098627415760
UWE-4
1 43880U 18111E   26182.06154668  .00038998  00000-0  77187-3 0  9990
2 43880  97.5854 111.0998 0004337 264.5521  95.5233 15.46980202412926
CAS-6 (TO-108)
1 44881U 19093C   26182.65147617  .00000730  00000-0  88349-4 0  9999
2 44881  97.7535 254.5309 0014697  43.9963 316.2420 14.86542691353568
DOSAAF-85 (RS-44)
1 44909U 19096E   26182.46868719  .00000000  00000-0 -51615-4 0  9992
2 44909  82.5231 330.2141 0218549 110.9217 251.5427 12.79748938304172
SALSAT (TUBSAT 22)
1 46495U 20068K   26182.46936082  .00008603  00000-0  29885-3 0  9993
2 46495  97.8847 186.4054 0007990 246.9386 113.1011 15.30000103317545
CAMSAT XW-3 (CAS-9)
1 50466U 21131B   26182.56315961  .00000534  00000-0  17862-3 0  9993
2 50466  98.4994 274.8751 0005262  64.0093 296.1638 14.41370542237184
ROBUSTA 1F (MTCUBE-2)
1 53109U 22080E   26181.72466670 -.00000003  00000-0  00000-0 0  9990
2 53109  70.1437 293.5372 0008959 286.6703  73.2973  6.42583253 92938
UMKA-1 (RS40S)
1 57172U 23091G   26182.63411239  .00007429  00000-0  33741-3 0  9998
2 57172  97.5042 241.2764 0014099  72.9869 287.2910 15.20985530166203
CUBESX-HSE-3 (RS42S)
1 57178U 23091N   26182.61451534  .00015937  00000-0  52378-3 0  9994
2 57178  97.5086 248.3866 0011105  49.0176 311.2024 15.31578087166637
MONITOR-3 (RS58S)
1 57180U 23091Q   26182.60566075  .00012667  00000-0  46333-3 0  9994
2 57180  97.5076 246.1593 0012346  55.4883 304.7520 15.28131419166498
MONITOR-4 (RS57S)
1 57182U 23091S   26182.64939628  .00013244  00000-0  48297-3 0  9991
2 57182  97.5071 246.1754 0012359  55.7160 304.5248 15.28218848166508
MONITOR-2 (RS39S)
1 57184U 23091U   26182.60776000  .00005490  00000-0  26480-3 0  9996
2 57184  97.5063 240.7979 0012499  67.3185 292.9369 15.19044384166147
SVYATOBOR-1 (RS60S)
1 57187U 23091X   26182.60956925  .00010559  00000-0  40223-3 0  9998
2 57187  97.5083 246.5078 0010113  50.3468 309.8661 15.26859049166517
VIZARD-METEO (RS38S)
1 57189U 23091Z   26182.60782396  .00020186  00000-0  56812-3 0  9997
2 57189  97.5087 252.3856 0007014  31.3952 328.7709 15.36484047166904
UTMN-2 (RS27S)
1 57203U 23091AP  26182.62427495  .00015433  00000-0  49487-3 0  9991
2 57203  97.5081 250.0478 0008191  38.8521 321.3308 15.32403837166752
POLYTECH UNIVERSE-3 (RS46S)
1 57191U 23091AB  26182.63302614  .00006378  00000-0  30472-3 0  9995
2 57191  97.5039 240.3272 0016955  81.2616 279.0538 15.19253086166140
